{"type": "FeatureCollection", "features": [{"type": "Feature", "id": 7548, "geometry": {"type": "MultiPolygon", "coordinates": [[[[10.5329968448872, 57.34961653664133], [10.532995730976232, 57.38295078943781], [10.515334158092752, 57.3829477297071], [10.515094242334877, 57.382947652717505], [10.514977272701717, 57.38248628607817], [10.515159663942061, 57.38189996392257], [10.515066839227119, 57.381787812864545], [10.515249394859165, 57.381189003241126], [10.515179648762189, 57.38106435817165], [10.51518359326461, 57.38097376813589], [10.515200868765824, 57.380577884080374], [10.51509474628975, 57.38028624397768], [10.5150735505406, 57.3802279338865], [10.51507354245576, 57.38022775423083], [10.515037652963558, 57.38012911052989], [10.515079582727745, 57.378994124972095], [10.515169446595518, 57.3783330151377], [10.51507519355926, 57.37779691028978], [10.515281869855, 57.37749737314127], [10.51514245850942, 57.37727296384427], [10.515255562691902, 57.37668666680949], [10.515161890865667, 57.37628762630172], [10.515345280134284, 57.37592576293988], [10.51530565634541, 57.37559353036377], [10.515294784933838, 57.375502849323304], [10.515273827238254, 57.375327225181564], [10.515481107201879, 57.37520230011087], [10.515479800153136, 57.37519387208596], [10.51547944711521, 57.375191990043135], [10.515478529037008, 57.37518634246109], [10.515457519239126, 57.375052666299155], [10.515542414525056, 57.37431472575187], [10.515522505163418, 57.37390518675655], [10.515637450892216, 57.37379278022052], [10.515638381546875, 57.37378540384134], [10.515839379591698, 57.37220872226486], [10.515861037973183, 57.37185949333264], [10.516020841974008, 57.371385362237774], [10.515974252648443, 57.37122334069389], [10.516040056039625, 57.3708706163644], [10.516040053344701, 57.370870526755816], [10.516048272031213, 57.370827132441455], [10.516132600480205, 57.37037501942505], [10.516338395528626, 57.369826048765056], [10.516426865211072, 57.368753377138255], [10.516563655272657, 57.36831679909088], [10.51651634639655, 57.368173829747526], [10.516514160795445, 57.36816738859601], [10.516493480679298, 57.368104850705684], [10.516722186360726, 57.36754329731392], [10.51669839897202, 57.367448640146044], [10.516676885219265, 57.36736257774653], [10.51662845794064, 57.36716922992552], [10.516834057156327, 57.36658289442028], [10.516944602936876, 57.36529814980079], [10.517217370084705, 57.364200350622504], [10.517215003922251, 57.36355184641252], [10.517398796534431, 57.363364502407656], [10.517327411012053, 57.36279093554712], [10.5174880324798, 57.36255383783861], [10.517395318257636, 57.362466568740935], [10.517416360394847, 57.361880389668386], [10.517643178715876, 57.361732588120056], [10.51764304037532, 57.361732590542516], [10.517646382108191, 57.36173048348945], [10.51762202518759, 57.361356388328346], [10.51777627221007, 57.360988314611035], [10.517795743193856, 57.36094190954106], [10.517799237640299, 57.360933603725506], [10.517805102740782, 57.36091960985375], [10.517665815362733, 57.36072026237301], [10.517825479226376, 57.360221157563586], [10.517823734698114, 57.359747265115196], [10.517960752033462, 57.35936053422145], [10.517959913006973, 57.35916095393632], [10.518091358990926, 57.35886842738713], [10.518091473975286, 57.35886788665253], [10.518176589348437, 57.35867840762917], [10.518234465107268, 57.358549619846784], [10.518210035423103, 57.358150554516165], [10.51848537175263, 57.357751016776895], [10.518369261807226, 57.357601512377165], [10.51862055113492, 57.35691527410716], [10.51878212302023, 57.35692760651379], [10.518669418588056, 57.35643906298589], [10.51882508674531, 57.3561293562863], [10.519053330692698, 57.35539336294647], [10.51905021353867, 57.355331152177335], [10.519033403364752, 57.35499397303328], [10.519033400669795, 57.35499388387046], [10.519033396178243, 57.35499379422309], [10.519028472512149, 57.35489450745315], [10.519257868998046, 57.35454492519124], [10.5192565323049, 57.3542206744872], [10.519439423008562, 57.35378398505411], [10.519460857709538, 57.35334744743696], [10.519619316932406, 57.352992972389856], [10.519633997200772, 57.352960188728076], [10.51968957866235, 57.35283591924212], [10.519963806470825, 57.35216215510175], [10.519916980888324, 57.351987563397124], [10.520237735140302, 57.351388599653774], [10.520212659567456, 57.35091462804827], [10.520396437806617, 57.35065254517926], [10.520396136870989, 57.350578981956055], [10.5203950508078, 57.350290837476706], [10.520456587201402, 57.350204671344216], [10.520716079045958, 57.34984151836936], [10.52072080867591, 57.349793494531944], [10.520738454283027, 57.34961704552519], [10.5329968448872, 57.34961653664133]]], [[[10.646692014617225, 57.48514071793155], [10.555648938263039, 57.56647251800613], [10.446022127063705, 57.53821086951606], [10.445693808098703, 57.53812597663328], [10.445712891010311, 57.53807213521071], [10.446220513705997, 57.53739077713519], [10.446855977446416, 57.53656414866394], [10.447445259696387, 57.53592496363163], [10.447632304209893, 57.53524718479793], [10.447762367686611, 57.534483831371865], [10.44779184949592, 57.534348491624115], [10.447704159551156, 57.53442270224679], [10.447307364707004, 57.53452416856253], [10.44756857143542, 57.5343135969508], [10.44758623411055, 57.53429354373408], [10.446744133600262, 57.534582721085165], [10.446614129412353, 57.53481271529009], [10.445944061668873, 57.53519270069139], [10.446004151774885, 57.535412701874854], [10.445243994686495, 57.53626276075457], [10.444784050074523, 57.53666269858328], [10.44374395189245, 57.53688271307481], [10.442584001383535, 57.5367227091547], [10.442534042477323, 57.53662268055133], [10.44283398006923, 57.53628269378845], [10.442723987650892, 57.536092632042966], [10.442424008736486, 57.53600264665822], [10.44230397944148, 57.536032670099516], [10.441683995470045, 57.535882654870115], [10.441564068582974, 57.53578261721073], [10.440964031702453, 57.53587264171382], [10.44064398711955, 57.5357626708842], [10.441054035707376, 57.535692601164754], [10.441104077258586, 57.535522627951835], [10.441374070408811, 57.5353626286697], [10.44181407062486, 57.535332633126146], [10.44220399515374, 57.53519263945213], [10.443084079129166, 57.535082611117936], [10.44416407957781, 57.53478265419645], [10.444284183432975, 57.534552685358854], [10.445434200371489, 57.534052692580566], [10.445944168568397, 57.53369268857655], [10.446474258129358, 57.53364269305708], [10.44709423671091, 57.53370268352515], [10.447294214269562, 57.533792727149354], [10.447664171046261, 57.53379270689623], [10.447802031899654, 57.53386882099454], [10.448334190280729, 57.53416271823693], [10.448954139217843, 57.534332731063586], [10.449074142461702, 57.53431276127979], [10.448684230509281, 57.53413274388778], [10.448234205094657, 57.533492722964965], [10.448994185214918, 57.533262682336], [10.448724281896205, 57.53306269459434], [10.448534313366444, 57.53308265879399], [10.448074241193684, 57.5328626662127], [10.448724306150725, 57.53271266156655], [10.450254277216768, 57.53182266055822], [10.45236441353097, 57.53066270114079], [10.45363442652683, 57.52989268561879], [10.453904453813012, 57.52937265450601], [10.454434573018377, 57.52879267974115], [10.455444679148023, 57.52788264493675], [10.456354601563937, 57.527942659352384], [10.456764695965848, 57.52747265222383], [10.459174747414064, 57.52538269573068], [10.45915476079731, 57.52509262398794], [10.459594893964027, 57.52476265056357], [10.460154847118297, 57.52379265995661], [10.460254933813973, 57.523702579091825], [10.45978486788367, 57.524802670039605], [10.459274799075454, 57.525122673778874], [10.459394848133396, 57.52514266306689], [10.459994776317801, 57.52476260667092], [10.461637820125294, 57.52336510114534], [10.461897647041434, 57.5233546369247], [10.46207492327457, 57.52311186124321], [10.462275739859678, 57.52295504268396], [10.462361445425989, 57.5228911741895], [10.462361710428999, 57.522890901655124], [10.462496218769756, 57.522790719811546], [10.4627164084223, 57.52261571036047], [10.46308429278566, 57.52229518440469], [10.46329672458744, 57.52209511431079], [10.463542168577552, 57.52188738638176], [10.463729623621168, 57.521730718847394], [10.46397950259385, 57.52146545198038], [10.464328428013136, 57.52117397524735], [10.464729582381366, 57.52084946656158], [10.465019354637516, 57.520580141672326], [10.465336838123529, 57.520339327272104], [10.465555409011936, 57.520124719991365], [10.46612991128056, 57.51962932877977], [10.466314777379509, 57.519501341239355], [10.466314911228475, 57.519501249582106], [10.466315045077444, 57.51950115744244], [10.466636816222334, 57.51927843399746], [10.467541365814512, 57.51852051400299], [10.467844734072496, 57.51825820950341], [10.468226312354046, 57.51794828711207], [10.468557093601225, 57.517703716500115], [10.469134837889674, 57.51729090866346], [10.469803255427983, 57.51680518473646], [10.470361308645392, 57.516399785810655], [10.47092451010773, 57.51595839571485], [10.47137104017758, 57.51560459209708], [10.472030996484229, 57.515118774793294], [10.47212993513298, 57.5150459433247], [10.472140004349013, 57.515039628333525], [10.472351339307803, 57.51490683137566], [10.4723483892404, 57.5148882727831], [10.473107948050789, 57.51433661519939], [10.473133839293899, 57.514272001143986], [10.473987352001547, 57.513579299359776], [10.474494097043202, 57.513228373394966], [10.475091221585599, 57.512804531877116], [10.4756513301484, 57.51245297796512], [10.475923488238461, 57.512269253169634], [10.476041413679066, 57.512189729000255], [10.47658815800538, 57.5118383269441], [10.477031759567426, 57.51158154402131], [10.477393096110678, 57.51126823747648], [10.477954727317892, 57.51094863087759], [10.477969260262533, 57.51094037737776], [10.477984063600102, 57.510932030267234], [10.47801258511038, 57.510915707098334], [10.47846024346425, 57.5106610272748], [10.479163165292606, 57.5102107765396], [10.479692089738633, 57.50991705583681], [10.480041935032746, 57.50965067235161], [10.480171023837412, 57.50954137180521], [10.480250840947015, 57.509472979178526], [10.48034528622272, 57.509391929877495], [10.480375173172252, 57.50939580081518], [10.481526012967572, 57.508682581090284], [10.48190184921781, 57.5084637625122], [10.481908690787035, 57.50842883148315], [10.482610214836809, 57.507946240558816], [10.483171052831619, 57.50761620030528], [10.483994100973, 57.507168101415594], [10.484829306015168, 57.50669111196759], [10.485785461125468, 57.506234249129236], [10.486417054923658, 57.50600405147556], [10.486878965049481, 57.50586917545959], [10.487397173492496, 57.505805582040935], [10.487636192731701, 57.505774020310426], [10.487770445052618, 57.50580261750466], [10.48777058159651, 57.505802616539505], [10.487977168060743, 57.505846617896], [10.488005617705786, 57.505845653686904], [10.48817125536606, 57.50587774282273], [10.488461711240134, 57.506125819063854], [10.488257861044296, 57.50636544315634], [10.488155357880492, 57.50647443905729], [10.48862341427949, 57.50649047563101], [10.489117161597308, 57.50615401399072], [10.48934708449597, 57.50570659062626], [10.488835944895948, 57.505450252450224], [10.488816626625766, 57.50514149240103], [10.488706417713429, 57.50456775163989], [10.488814785977747, 57.50444072231156], [10.489467651881839, 57.503943396132875], [10.489879835765096, 57.50357196471275], [10.490168988183717, 57.503460763262595], [10.490282479540081, 57.50329414988073], [10.491074958012371, 57.50272860792652], [10.491818516929225, 57.50232729492253], [10.492285650758435, 57.50199832163915], [10.492921963406776, 57.50155955663365], [10.493807788515186, 57.50101723421125], [10.495068023349175, 57.500168575714966], [10.49535139331231, 57.49991362491673], [10.49539684357409, 57.49989440420246], [10.49577323588153, 57.500154199135196], [10.497383548673312, 57.500853226620016], [10.499264241789204, 57.50131835747958], [10.501299905071404, 57.501521222627474], [10.502681808625802, 57.50150387300748], [10.504039570855234, 57.501364637024786], [10.505330582869178, 57.50110851595], [10.506775963178177, 57.50067834840935], [10.508409227925466, 57.49990656786241], [10.50995373552944, 57.499762879452945], [10.511288108323814, 57.499569322963175], [10.512545176596433, 57.499260448481], [10.51369032556444, 57.49884457834], [10.516011137473997, 57.49761560196841], [10.51681498412622, 57.49701149329796], [10.517422874977298, 57.49634452499696], [10.517818096871396, 57.49563286473668], [10.517990045196546, 57.494895955799905], [10.51771143540613, 57.493129080837605], [10.51796664677835, 57.4926582127623], [10.506640622997473, 57.490460401312895], [10.506201415095498, 57.490375104669035], [10.504328719680565, 57.48976842404284], [10.502625288424724, 57.488987419042466], [10.502373351411723, 57.48879191279202], [10.501043243818303, 57.48827635649683], [10.501026021317683, 57.48827233992149], [10.498102542260405, 57.48758842546538], [10.497913244772178, 57.48757468416199], [10.497165055040021, 57.48755482444482], [10.49601544144507, 57.4875109772682], [10.494920051058955, 57.487484442393146], [10.494451649706873, 57.48745406368672], [10.494309782367328, 57.48741263006079], [10.493868487678963, 57.4873891132922], [10.493360955713083, 57.48738075210348], [10.49374023071424, 57.48686238701236], [10.493968118928777, 57.4863997073132], [10.493981288230858, 57.486392096238085], [10.494275717353428, 57.4858411400925], [10.494446387375943, 57.48544964766208], [10.494568499864085, 57.485169302321154], [10.494641017263707, 57.484658160922386], [10.494772543197733, 57.483305401477146], [10.494810326338587, 57.482546851958624], [10.494816593884302, 57.482420846995794], [10.494828476798906, 57.482358189140335], [10.494970411512101, 57.48161403377755], [10.495384459399604, 57.48064604726291], [10.495939010984058, 57.47984885297833], [10.496696191055568, 57.47911392330049], [10.497514166410573, 57.47855800180145], [10.499309762119589, 57.47744415520856], [10.500299224964035, 57.47684306168286], [10.50360522553388, 57.47482722821882], [10.50519377843454, 57.47387385162434], [10.506963729937183, 57.47279621704469], [10.508551381827585, 57.47182852482676], [10.5108540396836, 57.47040663600045], [10.512313226200188, 57.469562593166], [10.513713588337044, 57.46865753059215], [10.513820318074256, 57.46858861256972], [10.513971999508291, 57.46870895043222], [10.514552209672207, 57.46919071046303], [10.515617740058271, 57.470119433620106], [10.51640361321827, 57.47073533412329], [10.517108036131475, 57.47131619103691], [10.517745823813517, 57.47189784538765], [10.518282566297449, 57.47229388155281], [10.518549192561984, 57.47229067133027], [10.518553381406152, 57.47229879494134], [10.520352899159729, 57.472046805655275], [10.52150621650861, 57.47387435975072], [10.521758638611875, 57.47388640408271], [10.52334179802756, 57.473413683291], [10.52353458636901, 57.47324850546901], [10.52399164199905, 57.47315872774361], [10.52448403645404, 57.4729071998782], [10.524735098507966, 57.47262265930532], [10.525513034154113, 57.472152277431], [10.526520391439005, 57.47169384567699], [10.527161677160747, 57.47149538627777], [10.528537497324033, 57.47148141188996], [10.528855776717409, 57.470789147454205], [10.528809159544066, 57.47059147245056], [10.52893030993655, 57.47046011988882], [10.529037384626848, 57.47034402709703], [10.528967564868008, 57.470084655734816], [10.529282122541142, 57.469800772370206], [10.529692075009276, 57.46975322389495], [10.52992843613357, 57.46966780787528], [10.530591416169448, 57.46943367736849], [10.530454839906906, 57.46925506039777], [10.533433173688676, 57.468048746688225], [10.533658896065079, 57.467706559196145], [10.534116821264309, 57.467557720849726], [10.534552605686745, 57.467569573543436], [10.535145573724307, 57.46781502996157], [10.535929290029307, 57.467802612132], [10.535982012153356, 57.467817239614995], [10.536026413182892, 57.4677842720939], [10.536093635912222, 57.4677512963305], [10.536176754330524, 57.467710492526095], [10.536225951465363, 57.46770989300973], [10.536410092623886, 57.46770765001648], [10.536659887154942, 57.467621967862605], [10.536867883974148, 57.4674936804882], [10.53701913062359, 57.467441535745195], [10.537231902886834, 57.46743687532837], [10.537392205452647, 57.46743339414596], [10.537788758650011, 57.46734592147783], [10.538068677285798, 57.4673425074371], [10.538112829482005, 57.46728079909097], [10.537799217734849, 57.46727743818484], [10.537588213356091, 57.46733399479784], [10.537481126089368, 57.46732452176088], [10.537417451705407, 57.46723897832395], [10.537403616751709, 57.46706668599845], [10.537391605378051, 57.466941079337694], [10.537505381500363, 57.466792291498294], [10.537735338534981, 57.466548760638126], [10.537953633640615, 57.46634839641645], [10.538341133616532, 57.46604904856101], [10.538775493310904, 57.465752630292364], [10.538915254101122, 57.46564654967428], [10.53898240316859, 57.46559560816159], [10.538838755368165, 57.46551104141246], [10.538788050860262, 57.46551165980659], [10.538624797328719, 57.46540218117638], [10.539333071319547, 57.46462338962867], [10.539588553982991, 57.4646278151189], [10.539709601967505, 57.464335219008], [10.539748413679368, 57.46398973216619], [10.539822274958647, 57.46368334055442], [10.539822204890074, 57.4636620527151], [10.539822335145786, 57.463661871535805], [10.539822267772138, 57.46365702221052], [10.576997966030447, 57.44234408040065], [10.576921013648255, 57.435118205864526], [10.611935571945489, 57.43508347058862], [10.646692014617225, 57.48514071793155]]]]}, "properties": {"OBJECTID": 7548, "SITECODE": "DK00FX113", "SITENAME": "Hirsholmene, havet vest herfor og Ellinge \u00c5's udl\u00f8b", "RELEASE_DATE": 1709164800000, "MS": "DK", "SITETYPE": "B", "POINT_X": 1174916.0217266644, "POINT_Y": 7862526.277941206, "Area_km2": 95.00841823473658, "Shape_Length": 103238.93820179533, "Shape_Area": 328071486.0190122, "Area_ha": 9500.841823473658, "A": 7, "B": 2, "C": 7, "D": 0, "Missing": 4}}]}